GLOBALSTAR M067         
1 32263U 07048A   24116.92983569 -.00000016  00000+0  60177-3 0  9991
2 32263  51.9711 176.8338 0001155 166.0317 247.7224 12.40643097757692
GLOBALSTAR M070         
1 32264U 07048B   24116.78453811 -.00000053  00000+0  28052-3 0  9995
2 32264  51.9758 320.0531 0000506  98.2453  32.0712 12.62290928760953
GLOBALSTAR M066         
1 32265U 07048C   24116.50138976 -.00000025  00000+0  44029-3 0  9999
2 32265  51.9661 182.9019 0000600 146.2558 317.9124 12.62261063763186
GLOBALSTAR M068         
1 32266U 07048D   24116.24262222 -.00000027  00000+0  42471-3 0  9994
2 32266  51.9862 136.2516 0000742 299.9865 140.7256 12.62786362765047
GLOBALSTAR M079         
1 37188U 10054A   24116.88686596 -.00000073  00000+0  17315-3 0  9997
2 37188  52.0052 330.1158 0001019  92.5020  12.5225 12.62268925623756
GLOBALSTAR M074         
1 37189U 10054B   24116.91329281 -.00000068  00000+0  20167-3 0  9990
2 37189  52.0032 329.4235 0000784  90.3227  14.1827 12.62267758624362
GLOBALSTAR M076         
1 37190U 10054C   24116.77556214 -.00000065  00000+0  21470-3 0  9999
2 37190  52.0042 329.9744 0000995 122.1600 317.2468 12.62277343624064
GLOBALSTAR M077         
1 37191U 10054D   24116.68390427 -.00000093  00000+0  58338-4 0  9997
2 37191  52.0067 286.9902 0000748 117.2874 324.2872 12.62272024624422
